satname,norad_id,inclination_deg,eccentricity,mean_motion_rev_per_day,perigee_km,apogee_km,l1,l2
STARLINK-1008,44714,53.052,0.0001274,15.06411771,546.293196943353,548.0577665637038,1 44714U 19074B   25275.46759318  .00016727  00000+0  11388-2 0  9990,2 44714  53.0520 176.9063 0001274 101.4003 258.7129 15.06411771324907
STARLINK-1010,44716,53.0481,0.0005974,15.82833935,318.4278840122988,326.43372242358237,1 44716U 19074D   25275.66668980  .00256640  00000+0  11543-2 0  9991,2 44716  53.0481 118.7885 0005974  98.3447  26.4198 15.82833935  6017
STARLINK-1011,44717,53.0488,0.0007067,15.7272926,346.3450569487295,355.8561613855263,1 44717U 19074E   25275.66668980  .00266599  00000+0  18795-2 0  9992,2 44717  53.0488 173.4729 0007067 107.1208 114.9643 15.72729260  5874
STARLINK-1012,44718,53.0525,0.0002138,15.06425844,545.6517283456697,548.6129735201293,1 44718U 19074F   25275.44546730  .00015017  00000+0  10241-2 0  9992,2 44718  53.0525 177.0028 0002138  76.2060 283.9166 15.06425844324896
STARLINK-1015,44721,53.0339,0.0005414,16.22511924,209.17225092914668,216.30885314249008,1 44721U 19074J   25275.43055676  .03206905  11881-4  13194-2 0  9994,2 44721  53.0339 105.1314 0005414 269.7132  90.3286 16.22511924325890
STARLINK-1017,44723,53.0526,0.0004529,15.12192263,526.3873197306102,532.6442716329393,1 44723U 19074L   25275.42418850  .00038769  00000+0  22249-2 0  9997,2 44723  53.0526 175.1398 0004529  78.6202 281.5298 15.12192263324929
STARLINK-1019,44724,53.0534,0.0002121,15.06414,545.6997929585286,548.6375076153809,1 44724U 19074M   25275.44177822  .00016066  00000+0  10946-2 0  9998,2 44724  53.0534 177.0236 0002121  59.1486 300.9712 15.06414000324897
STARLINK-1020,44725,53.0536,0.000171,15.06405289,546.0111161309596,548.3795797939629,1 44725U 19074N   25275.51365545  .00013235  00000+0  90560-3 0  9994,2 44725  53.0536 196.7005 0001710  70.3729 289.7444 15.06405289324626
STARLINK-1021,44726,53.0381,0.0004652,16.06693444,252.84342930004823,259.01576486197337,1 44726U 19074P   25275.92553938  .00790796  33473-3  10144-2 0  9992,2 44726  53.0381 109.2852 0004652 298.7354  61.3211 16.06693444325880
STARLINK-1029,44734,53.0494,0.0002312,15.97843633,278.86319791052665,281.94210664573984,1 44734U 19074X   25275.66668980  .00612879  17297-3  13258-2 0  9996,2 44734  53.0494  35.1274 0002312 347.0023 246.0064 15.97843633  6027
STARLINK-1031,44736,53.0518,0.0009198,15.40517838,438.30440453159554,450.8554746136324,1 44736U 19074Z   25275.14692531  .00099270  00000+0  23848-2 0  9990,2 44736  53.0518 175.4436 0009198  84.0514 276.1538 15.40517838324909
STARLINK-1036,44741,53.0525,0.000166,15.06408046,546.0372944497703,548.3365019839794,1 44741U 19074AE  25275.47679148  .00011609  00000+0  79677-3 0  9993,2 44741  53.0525 196.8616 0001660  63.9846 296.1314 15.06408046324625
STARLINK-1039,44744,53.0495,0.0006512,15.10645029,529.7302973798332,538.732966285932,1 44744U 19074AH  25275.24747294  .00073373  00000+0  43573-2 0  9990,2 44744  53.0495 216.9338 0006512  49.3210 310.8346 15.10645029324328
STARLINK-1042,44747,53.0467,0.0003396,15.41575787,439.14212920146565,443.77399816872094,1 44747U 19074AL  25275.30151196  .00033551  00000+0  79215-3 0  9997,2 44747  53.0467 129.9576 0003396  65.8453 294.2906 15.41575787325578
STARLINK-1043,44748,53.0525,0.0001498,15.06429127,546.0848854751712,548.1596931582499,1 44748U 19074AM  25275.25010557  .00023806  00000+0  16104-2 0  9996,2 44748  53.0525 217.8832 0001498  80.0077 280.1081 15.06429127324314
STARLINK-1046,44751,53.0506,8.93e-05,15.0642203,546.5256123871422,547.762467580882,1 44751U 19074AQ  25275.53023833  .00014466  00000+0  98749-3 0  9990,2 44751  53.0506 216.6251 0000893  51.8072 308.2997 15.06422030324356
STARLINK-1047,44752,53.0714,0.000552,15.28432874,476.71050639505484,484.28243774822204,1 44752U 19074AR  25275.40689902  .00017769  00000+0  64432-3 0  9993,2 44752  53.0714 163.1386 0005520  87.0489 273.1141 15.28432874325104
STARLINK-1048,44753,53.0527,0.0001732,15.06417703,545.9578403513351,548.3567622973142,1 44753U 19074AS  25275.42335247  .00013225  00000+0  90464-3 0  9993,2 44753  53.0527 177.1036 0001732  64.2211 295.8957 15.06417703324896
STARLINK-1053,44758,53.0412,0.0002372,15.5672808,395.52686725351396,398.74105579766183,1 44758U 19074AX  25275.36372523  .00079227  00000+0  10848-2 0  9990,2 44758  53.0412 146.5195 0002372 120.8310 239.2934 15.56728080325335
STARLINK-1054,44759,53.0429,0.0009246,15.71921714,347.18110980440724,359.6290774439385,1 44759U 19074AY  25275.66668980  .00287445  00000+0  20897-2 0  9997,2 44759  53.0429 173.6520 0009246  80.7380  53.1114 15.71921714  5968
STARLINK-1056,44761,53.0405,0.0008396,15.83912306,313.76592798091315,325.0124139271793,1 44761U 19074BA  25275.66668980  .00363375  00000+0  15317-2 0  9998,2 44761  53.0405 162.0687 0008396  90.8846  55.7317 15.83912306  5946
STARLINK-1057,44762,53.0341,0.0004988,16.28250939,193.96461452003768,200.5242150194117,1 44762U 19074BB  25275.96390404  .03466555  12032-4  87002-3 0  9996,2 44762  53.0341 128.8800 0004988 257.8136 102.2347 16.28250939325610
STARLINK-1060,44765,53.0544,0.0001226,15.48574567,420.0615619918508,421.72868466849104,1 44765U 19074BE  25275.66668980  .00498337  00000+0  86267-2 0  9991,2 44765  53.0544 191.1072 0001226 107.2305  34.2285 15.48574567  5820
STARLINK-1063,44768,53.053,0.0001744,15.06389985,546.034466499249,548.4500387825701,1 44768U 19074BH  25275.71822012 -.00006161  00000+0 -39517-3 0  9997,2 44768  53.0530 215.7804 0001744  87.9185 272.2003 15.06389985324399
STARLINK-1067,44771,53.0516,0.0001129,15.0640224,546.4228215923013,547.9865637465064,1 44771U 19074BL  25275.57447294  .00006819  00000+0  47621-3 0  9993,2 44771  53.0516 216.4273 0001129  72.7873 287.3240 15.06402240324365
STARLINK-1068,44772,53.0527,0.0001318,15.06423054,546.2281500223289,548.053653277203,1 44772U 19074BM  25275.49891177  .00017198  00000+0  11699-2 0  9995,2 44772  53.0527 196.7661 0001318  85.7034 274.4105 15.06423054324624
STARLINK-1112,44925,53.0524,2.88e-05,15.48052776,422.22698191930976,422.61869416598074,1 44925U 20001M   25275.66668980  .00092155  00000+0  17192-2 0  9990,2 44925  53.0524 303.0367 0000288 180.3705 165.6612 15.48052776  5927
STARLINK-1114,44927,53.0558,0.0001634,15.06450951,545.9238284239109,548.1869813018193,1 44927U 20001P   25275.47124372  .00033750  00000+0  22707-2 0  9997,2 44927  53.0558 336.8923 0001634  67.3363 292.7799 15.06450951316001
STARLINK-1123,44930,53.0558,0.0001633,15.06410279,546.0491501878696,548.3109587378576,1 44930U 20001S   25275.48601216  .00004325  00000+0  30899-3 0  9997,2 44930  53.0558 336.8252 0001633 117.9908 242.1246 15.06410279316001
STARLINK-1144,44933,53.046,0.0013161,15.52795023,399.63782406599876,417.5017937283774,1 44933U 20001V   25275.31137492  .00166154  00000+0  25822-2 0  9990,2 44933  53.0460 282.8401 0013161 344.4477  15.6126 15.52795023318049
STARLINK-1091,44940,53.039,0.0003149,15.8181159,323.20668273030515,327.42851843775225,1 44940U 20001AC  25275.66668980  .00290857  00000+0  13672-2 0  9995,2 44940  53.0390 264.4683 0003149  42.0118  36.8200 15.81811590  5945
STARLINK-1094,44941,53.0552,0.0001351,15.06399166,546.2784990938326,548.1497289648432,1 44941U 20001AD  25275.43257499  .00014808  00000+0  10109-2 0  9992,2 44941  53.0552 317.0644 0001351 112.6760 247.4372 15.06399166316276
STARLINK-1096,44942,52.9912,0.0002081,15.7923595,331.20773964703676,334.0007501531645,1 44942U 20001AE  25275.66668980  .00168564  00000+0  90597-3 0  9998,2 44942  52.9912  91.1508 0002081 255.4894  24.7213 15.79235950  6006
STARLINK-1122,44949,53.0547,0.0001611,15.06408188,546.0707934013435,548.3021326211256,1 44949U 20001AM  25275.38833277  .00015890  00000+0  10830-2 0  9991,2 44949  53.0547 317.2594 0001611  74.0651 286.0515 15.06408188316265
STARLINK-1080,44961,53.0538,0.0001509,15.06401098,546.1631581388801,548.253227318045,1 44961U 20001AZ  25275.45283856  .00010174  00000+0  70090-3 0  9990,2 44961  53.0538 296.9738 0001509  83.5916 276.5245 15.06401098316567
STARLINK-1090,44968,53.0539,0.000145,15.06398437,546.2121720768018,548.2205245478126,1 44968U 20001BG  25275.32382757  .00001707  00000+0  13347-3 0  9997,2 44968  53.0539 297.5543 0001450  92.0171 268.0984 15.06398437316545
STARLINK-1107,44972,53.0111,0.0007778,15.587885,385.89707702957,396.4273989241674,1 44972U 20001BL  25275.66668980  .00250425  00000+0  30907-2 0  9997,2 44972  53.0111 222.3380 0007778 100.9330 319.6603 15.58788500  5891
STARLINK-1132,45044,53.0546,0.0001433,15.06400779,546.2167683102825,548.2015725227238,1 45044U 20006A   25275.68136324 -.00000450  00000+0 -11285-4 0  9990,2 45044  53.0546 255.9443 0001433  85.8188 274.2965 15.06400779312924
STARLINK-1131,45047,53.0557,0.000142,15.06399847,546.2286272994679,548.1954264230963,1 45047U 20006D   25275.32573605 -.00000266  00000+0  10360-5 0  9999,2 45047  53.0557 278.0825 0001420 101.4011 258.7138 15.06399847312589
STARLINK-1134,45048,53.0405,0.0010261,15.24673974,484.71539553013554,498.81380759686454,1 45048U 20006E   25275.66821262  .00107976  00000+0  42582-2 0  9995,2 45048  53.0405 258.3784 0010261  42.9948 317.1849 15.24673974312897
STARLINK-1156,45054,53.0552,0.0001491,15.06409767,546.1490586449345,548.2141886585068,1 45054U 20006L   25275.42886457 -.00000206  00000+0  50517-5 0  9992,2 45054  53.0552 277.0824 0001491  96.5977 263.5182 15.06409767312602
STARLINK-1159,45057,53.0536,0.0001457,15.06398089,546.2083907459855,548.2264390224827,1 45057U 20006P   25275.17823049  .00005694  00000+0  40084-3 0  9996,2 45057  53.0536 278.2058 0001457  99.1989 260.9165 15.06398089312575
STARLINK-1166,45060,53.0556,0.0001544,15.06407162,546.1203370985595,548.2588779549633,1 45060U 20006S   25275.18928804  .00000355  00000+0  42694-4 0  9995,2 45060  53.0556 278.1587 0001544  93.5294 266.5871 15.06407162312570
